{"fetched_at":"2026-03-29T02:12:04Z","count":15717,"tles":[{"name":"STARLINK-35323","line1":"1 66071U 25235P   26087.48923042  .00024309  00000+0  83004-3 0  9997","line2":"2 66071  53.1583 157.6703 0001533  88.1671 271.9505 15.30204921 25800","category":"Starlink"}]}